{
    "links": {
        "self": "http://www.neowsapp.com/rest/v1/neo/3177235?api_key=iIulBulltgU6a56xZRHN4H3l9WmuAYTsLGpBGhQ2"
    },
    "id": "3177235",
    "neo_reference_id": "3177235",
    "name": "(2004 FJ31)",
    "designation": "2004 FJ31",
    "nasa_jpl_url": "http://ssd.jpl.nasa.gov/sbdb.cgi?sstr=3177235",
    "absolute_magnitude_h": 23.979,
    "estimated_diameter": {
        "kilometers": {
            "estimated_diameter_min": 0.0425358364,
            "estimated_diameter_max": 0.0951130216
        },
        "meters": {
            "estimated_diameter_min": 42.5358363674,
            "estimated_diameter_max": 95.1130215973
        },
        "miles": {
            "estimated_diameter_min": 0.0264305352,
            "estimated_diameter_max": 0.0591004733
        },
        "feet": {
            "estimated_diameter_min": 139.5532733876,
            "estimated_diameter_max": 312.0506057774
        }
    },
    "is_potentially_hazardous_asteroid": false,
    "close_approach_data": [
        {
            "close_approach_date": "1961-03-11",
            "close_approach_date_full": "1961-Mar-11 20:39",
            "epoch_date_close_approach": -277960860000,
            "relative_velocity": {
                "kilometers_per_second": "22.9017402682",
                "kilometers_per_hour": "82446.2649656665",
                "miles_per_hour": "51228.9028060276"
            },
            "miss_distance": {
                "astronomical": "0.4686635987",
                "lunar": "182.3101398943",
                "kilometers": "70111076.112054769",
                "miles": "43565002.5600190522"
            },
            "orbiting_body": "Earth"
        },
        {
            "close_approach_date": "2001-09-04",
            "close_approach_date_full": "2001-Sep-04 22:26",
            "epoch_date_close_approach": 999642360000,
            "relative_velocity": {
                "kilometers_per_second": "14.7581639606",
                "kilometers_per_hour": "53129.3902580178",
                "miles_per_hour": "33012.5369633778"
            },
            "miss_distance": {
                "astronomical": "0.2012401292",
                "lunar": "78.2824102588",
                "kilometers": "30105094.686844804",
                "miles": "18706438.4093301352"
            },
            "orbiting_body": "Earth"
        },
        {
            "close_approach_date": "2004-04-04",
            "close_approach_date_full": "2004-Apr-04 08:25",
            "epoch_date_close_approach": 1081067100000,
            "relative_velocity": {
                "kilometers_per_second": "9.9837009057",
                "kilometers_per_hour": "35941.3232605824",
                "miles_per_hour": "22332.5405559991"
            },
            "miss_distance": {
                "astronomical": "0.0428988073",
                "lunar": "16.6876360397",
                "kilometers": "6417570.197620451",
                "miles": "3987693.2090101838"
            },
            "orbiting_body": "Earth"
        }
    ],
    "orbital_data": {
        "orbit_id": "6",
        "orbit_determination_date": "2017-04-06 09:12:59",
        "first_observation_date": "2004-03-29",
        "last_observation_date": "2004-03-31",
        "data_arc_in_days": 2,
        "observations_used": 22,
        "orbit_uncertainty": "8",
        "minimum_orbit_intersection": ".0221599",
        "jupiter_tisserand_invariant": "5.024",
        "epoch_osculation": "2453095.5",
        "eccentricity": ".3231258433622795",
        "semi_major_axis": "1.272548635816043",
        "inclination": "1.95070751057905",
        "ascending_node_longitude": "58.52911411787119",
        "orbital_period": "524.3364042261011",
        "perihelion_distance": ".8613552846484659",
        "perihelion_argument": "203.7912220241283",
        "aphelion_distance": "1.68374198698362",
        "perihelion_time": "2453151.258242898702",
        "mean_anomaly": "321.7173873838503",
        "mean_motion": ".6865821199871582",
        "equinox": "J2000",
        "orbit_class": {
            "orbit_class_type": "APO",
            "orbit_class_description": "Near-Earth asteroid orbits which cross the Earth’s orbit similar to that of 1862 Apollo",
            "orbit_class_range": "a (semi-major axis) > 1.0 AU; q (perihelion) < 1.017 AU"
        }
    },
    "is_sentry_object": false
}